[{"OBJECT_NAME":"STARLINK-1958","OBJECT_ID":"2021-009M","EPOCH":"2026-03-09T21:30:00.106848","MEAN_MOTION":15.67474201,"ECCENTRICITY":0.00053899,"INCLINATION":53.0457,"RA_OF_ASC_NODE":320.4715,"ARG_OF_PERICENTER":347.5018,"MEAN_ANOMALY":12.5863,"EPHEMERIS_TYPE":0,"CLASSIFICATION_TYPE":"U","NORAD_CAT_ID":47559,"ELEMENT_SET_NO":999,"REV_AT_EPOCH":28167,"BSTAR":0.00087609407,"MEAN_MOTION_DOT":0.00097472,"MEAN_MOTION_DDOT":0},{"OBJECT_NAME":"STARLINK-11148 [DTC]","OBJECT_ID":"2024-112G","EPOCH":"2026-03-09T19:59:22.302528","MEAN_MOTION":15.6969352,"ECCENTRICITY":8.967e-5,"INCLINATION":53.1594,"RA_OF_ASC_NODE":265.5525,"ARG_OF_PERICENTER":130.9667,"MEAN_ANOMALY":229.1428,"EPHEMERIS_TYPE":0,"CLASSIFICATION_TYPE":"U","NORAD_CAT_ID":60044,"ELEMENT_SET_NO":999,"REV_AT_EPOCH":10100,"BSTAR":8.971746e-6,"MEAN_MOTION_DOT":4.98e-6,"MEAN_MOTION_DDOT":0}]
