STARLINK-1958           
1 47559U 21009M   26068.89583456  .00097472  00000+0  87609-3 0  9993
2 47559  53.0457 320.4715 0005390 347.5018  12.5863 15.67474201281679
STARLINK-11148 [DTC]    
1 60044U 24112G   26068.83289702  .00000498  00000+0  89717-5 0  9992
2 60044  53.1594 265.5525 0000896 130.9667 229.1428 15.69693520101004
